[{"OBJECT_NAME":"TOMORROW-R2","OBJECT_ID":"2023-084AG","EPOCH":"2026-03-09T21:19:23.098656","MEAN_MOTION":15.71879583,"ECCENTRICITY":0.00051142,"INCLINATION":97.5895,"RA_OF_ASC_NODE":222.1734,"ARG_OF_PERICENTER":248.1295,"MEAN_ANOMALY":111.9424,"EPHEMERIS_TYPE":0,"CLASSIFICATION_TYPE":"U","NORAD_CAT_ID":56962,"ELEMENT_SET_NO":999,"REV_AT_EPOCH":15332,"BSTAR":0.00081619373,"MEAN_MOTION_DOT":0.00107013,"MEAN_MOTION_DDOT":0},{"OBJECT_NAME":"STARLINK-11358 [DTC]","OBJECT_ID":"2025-006E","EPOCH":"2026-03-09T15:06:37.589472","MEAN_MOTION":15.70879246,"ECCENTRICITY":0.0001306,"INCLINATION":42.9985,"RA_OF_ASC_NODE":140.1945,"ARG_OF_PERICENTER":302.1544,"MEAN_ANOMALY":57.9197,"EPHEMERIS_TYPE":0,"CLASSIFICATION_TYPE":"U","NORAD_CAT_ID":62558,"ELEMENT_SET_NO":999,"REV_AT_EPOCH":6659,"BSTAR":0.0014706,"MEAN_MOTION_DOT":0.0019301,"MEAN_MOTION_DDOT":0}]
